{
    "links": {
        "self": "http://www.neowsapp.com/rest/v1/neo/54017040?api_key=iIulBulltgU6a56xZRHN4H3l9WmuAYTsLGpBGhQ2"
    },
    "id": "54017040",
    "neo_reference_id": "54017040",
    "name": "(2020 JJ2)",
    "designation": "2020 JJ2",
    "nasa_jpl_url": "http://ssd.jpl.nasa.gov/sbdb.cgi?sstr=54017040",
    "absolute_magnitude_h": 24.384,
    "estimated_diameter": {
        "kilometers": {
            "estimated_diameter_min": 0.0352983965,
            "estimated_diameter_max": 0.078929614
        },
        "meters": {
            "estimated_diameter_min": 35.2983964564,
            "estimated_diameter_max": 78.9296139732
        },
        "miles": {
            "estimated_diameter_min": 0.0219333999,
            "estimated_diameter_max": 0.0490445732
        },
        "feet": {
            "estimated_diameter_min": 115.8083910299,
            "estimated_diameter_max": 258.9554347077
        }
    },
    "is_potentially_hazardous_asteroid": false,
    "close_approach_data": [
        {
            "close_approach_date": "2020-04-21",
            "close_approach_date_full": "2020-Apr-21 20:15",
            "epoch_date_close_approach": 1587500100000,
            "relative_velocity": {
                "kilometers_per_second": "5.4171143323",
                "kilometers_per_hour": "19501.611596371",
                "miles_per_hour": "12117.5430499784"
            },
            "miss_distance": {
                "astronomical": "0.1183831351",
                "lunar": "46.0510395539",
                "kilometers": "17709864.854882237",
                "miles": "11004399.7400273906"
            },
            "orbiting_body": "Earth"
        }
    ],
    "orbital_data": {
        "orbit_id": "3",
        "orbit_determination_date": "2020-05-26 08:17:34",
        "first_observation_date": "2020-05-15",
        "last_observation_date": "2020-05-26",
        "data_arc_in_days": 11,
        "observations_used": 25,
        "orbit_uncertainty": "8",
        "minimum_orbit_intersection": ".102272",
        "jupiter_tisserand_invariant": "4.515",
        "epoch_osculation": "2458985.5",
        "eccentricity": ".283083586467834",
        "semi_major_axis": "1.489078135146205",
        "inclination": "6.133553743236916",
        "ascending_node_longitude": "243.3195558641238",
        "orbital_period": "663.704339116648",
        "perihelion_distance": "1.067544556118183",
        "perihelion_argument": "303.7003290428545",
        "aphelion_distance": "1.910611714174226",
        "perihelion_time": "2458940.009027644267",
        "mean_anomaly": "24.67476718603405",
        "mean_motion": ".5424101949960718",
        "equinox": "J2000",
        "orbit_class": {
            "orbit_class_type": "AMO",
            "orbit_class_description": "Near-Earth asteroid orbits similar to that of 1221 Amor",
            "orbit_class_range": "1.017 AU < q (perihelion) < 1.3 AU"
        }
    },
    "is_sentry_object": false
}